IRIDIUM 63              
1 25286U 98021B   25338.61777363  .00000696  00000+0  22976-3 0  9993
2 25286  86.3990  10.6230 0002410  92.2338 267.9136 14.36726280448319
IRIDIUM 69              
1 25319U 98026A   25338.59158671  .00001044  00000+0  31751-3 0  9996
2 25319  86.3986  23.3833 0003310 140.0160 220.1285 14.41204848447600
IRIDIUM 71              
1 25320U 98026B   25338.64836836  .00000562  00000+0  16758-3 0  9994
2 25320  86.3983  18.0327 0001030 164.4720 195.6512 14.41310990448142
IRIDIUM 73              
1 25344U 98032C   25338.50896909  .00001316  00000+0  32118-3 0  9995
2 25344  86.4402 334.4880 0002792 100.6118 259.5402 14.51972887455273
IRIDIUM 82              
1 25467U 98051A   25338.62258586  .00075823  00000+0  14432-2 0  9990
2 25467  86.3622  25.1932 0063043   6.9544 353.2571 15.45730632450145
